{"type": "FeatureCollection", "features": [{"id": "0", "type": "Feature", "properties": {"endpoint_cluster": 5, "lat": 52.217041374819104, "lon": 20.864652141823445, "events": 691, "origins": 366, "destinations": 325, "terminal_id": "T5", "area_km2": 16.165599844992688}, "geometry": {"type": "Polygon", "coordinates": [[[20.8824076222579, 52.228012095731586], [20.93260695114509, 52.20273268142125], [20.900140286582083, 52.18380796889003], [20.83262785922087, 52.227478871362656], [20.842281267829087, 52.23311322858697], [20.8824076222579, 52.228012095731586]]]}}, {"id": "1", "type": "Feature", "properties": {"endpoint_cluster": 18, "lat": 52.30769617957747, "lon": 21.095983661971832, "events": 568, "origins": 312, "destinations": 256, "terminal_id": "T18", "area_km2": 6.0153983437295055}, "geometry": {"type": "Polygon", "coordinates": [[[21.082472275710042, 52.328571409476915], [21.11407801782698, 52.30804622067288], [21.073201554004342, 52.28439302526471], [21.082472275710042, 52.328571409476915]]]}}, {"id": "2", "type": "Feature", "properties": {"endpoint_cluster": 3, "lat": 52.2918147751606, "lon": 20.973781092077086, "events": 467, "origins": 233, "destinations": 234, "terminal_id": "T3", "area_km2": 4.5022514430687695}, "geometry": {"type": "Polygon", "coordinates": [[[20.974701265719577, 52.281546279884125], [20.949807554102833, 52.29572108035444], [20.966025019455838, 52.3051397129107], [20.99620761331783, 52.29059869498078], [20.9889323221157, 52.28185434268157], [20.986392122760652, 52.28077127522731], [20.974701265719577, 52.281546279884125]]]}}, {"id": "3", "type": "Feature", "properties": {"endpoint_cluster": 13, "lat": 52.26967496202531, "lon": 20.998876101265825, "events": 395, "origins": 190, "destinations": 205, "terminal_id": "T13", "area_km2": 7.996233342859553}, "geometry": {"type": "Polygon", "coordinates": [[[20.99127448799137, 52.2500557738603], [20.98400618365006, 52.267648911608724], [20.986392122760652, 52.28077127522731], [20.9889323221157, 52.28185434268157], [21.034637947492122, 52.26204156893892], [20.998289112537616, 52.240941218229246], [20.99127448799137, 52.2500557738603]]]}}, {"id": "4", "type": "Feature", "properties": {"endpoint_cluster": 21, "lat": 52.25455725146199, "lon": 20.9526866374269, "events": 342, "origins": 182, "destinations": 160, "terminal_id": "T21", "area_km2": 4.668580494106645}, "geometry": {"type": "Polygon", "coordinates": [[[20.940270841565606, 52.25768706213533], [20.95188266114554, 52.260917753242126], [20.98624958471479, 52.23394534456776], [20.970291064693107, 52.22466688581761], [20.940270841565606, 52.25768706213533]]]}}, {"id": "5", "type": "Feature", "properties": {"endpoint_cluster": 0, "lat": 52.303673611111115, "lon": 20.988980357142857, "events": 252, "origins": 122, "destinations": 130, "terminal_id": "T0", "area_km2": 4.314092200557688}, "geometry": {"type": "Polygon", "coordinates": [[[20.999628290335753, 52.291802595386535], [20.99620761331783, 52.29059869498078], [20.966025019455838, 52.3051397129107], [20.99805825311936, 52.32372516692835], [20.999628290335753, 52.291802595386535]]]}}, {"id": "6", "type": "Feature", "properties": {"endpoint_cluster": 25, "lat": 52.240862028985504, "lon": 20.89643166666667, "events": 138, "origins": 51, "destinations": 87, "terminal_id": "T25", "area_km2": 9.863863114907552}, "geometry": {"type": "Polygon", "coordinates": [[[20.938782284362254, 52.20632939658665], [20.93260695114509, 52.20273268142125], [20.8824076222579, 52.228012095731586], [20.88561362345125, 52.246109256279205], [20.917980628044866, 52.24391641135725], [20.938782284362254, 52.20632939658665]]]}}, {"id": "7", "type": "Feature", "properties": {"endpoint_cluster": 11, "lat": 52.28017753731343, "lon": 21.010972164179105, "events": 134, "origins": 73, "destinations": 61, "terminal_id": "T11", "area_km2": 3.877555180520212}, "geometry": {"type": "Polygon", "coordinates": [[[20.9889323221157, 52.28185434268157], [20.99620761331783, 52.29059869498078], [20.999628290335753, 52.291802595386535], [21.007342606031354, 52.2920316727708], [21.036750483629206, 52.263266915117384], [21.034637947492122, 52.26204156893892], [20.9889323221157, 52.28185434268157]]]}}, {"id": "8", "type": "Feature", "properties": {"endpoint_cluster": 29, "lat": 52.271634943820224, "lon": 20.970228764044943, "events": 89, "origins": 42, "destinations": 47, "terminal_id": "T29", "area_km2": 2.0895476695551696}, "geometry": {"type": "Polygon", "coordinates": [[[20.974701265719577, 52.281546279884125], [20.986392122760652, 52.28077127522731], [20.98400618365006, 52.267648911608724], [20.96164461904978, 52.26876556047741], [20.96021550393133, 52.27465216445538], [20.974701265719577, 52.281546279884125]]]}}, {"id": "9", "type": "Feature", "properties": {"endpoint_cluster": 8, "lat": 52.30404524590164, "lon": 21.009090655737708, "events": 61, "origins": 32, "destinations": 29, "terminal_id": "T8", "area_km2": 8.232675861787873}, "geometry": {"type": "Polygon", "coordinates": [[[21.032682211375658, 52.31405817031685], [21.016242397141237, 52.29448791118386], [21.007342606031354, 52.2920316727708], [20.999628290335753, 52.291802595386535], [20.99805825311936, 52.32372516692835], [21.024420159444464, 52.33900173135377], [21.032682211375658, 52.31405817031685]]]}}, {"id": "10", "type": "Feature", "properties": {"endpoint_cluster": 23, "lat": 52.25890859649123, "lon": 20.9617501754386, "events": 57, "origins": 20, "destinations": 37, "terminal_id": "T23", "area_km2": 4.16063162710444}, "geometry": {"type": "Polygon", "coordinates": [[[20.99127448799137, 52.2500557738603], [20.998289112537616, 52.240941218229246], [20.98624958471479, 52.23394534456776], [20.95188266114554, 52.260917753242126], [20.954747875948364, 52.26373012762101], [20.95888261388187, 52.26509156571525], [20.99127448799137, 52.2500557738603]]]}}, {"id": "12", "type": "Feature", "properties": {"endpoint_cluster": 10, "lat": 52.24241264150943, "lon": 20.873210377358493, "events": 53, "origins": 30, "destinations": 23, "terminal_id": "T10", "area_km2": 4.529729806285184}, "geometry": {"type": "Polygon", "coordinates": [[[20.88561362345125, 52.246109256279205], [20.8824076222579, 52.228012095731586], [20.842281267829087, 52.23311322858697], [20.878986477152658, 52.25451630112317], [20.88561362345125, 52.246109256279205]]]}}, {"id": "15", "type": "Feature", "properties": {"endpoint_cluster": 9, "lat": 52.26548068181818, "lon": 20.94461613636364, "events": 44, "origins": 32, "destinations": 12, "terminal_id": "T9", "area_km2": 4.63130206348565}, "geometry": {"type": "Polygon", "coordinates": [[[20.95188266114554, 52.260917753242126], [20.940270841565606, 52.25768706213533], [20.91823716473146, 52.26108126122835], [20.9086504132165, 52.271789888153], [20.925456124480494, 52.28156663176529], [20.926884837924156, 52.28111585217328], [20.954747875948364, 52.26373012762101], [20.95188266114554, 52.260917753242126]]]}}, {"id": "16", "type": "Feature", "properties": {"endpoint_cluster": 26, "lat": 52.29647136363636, "lon": 21.033084318181817, "events": 44, "origins": 25, "destinations": 19, "terminal_id": "T26", "area_km2": 6.278538230598234}, "geometry": {"type": "Polygon", "coordinates": [[[21.07285374032606, 52.28419159141677], [21.064075393573145, 52.27910671638652], [21.016242397141237, 52.29448791118386], [21.032682211375658, 52.31405817031685], [21.07285374032606, 52.28419159141677]]]}}, {"id": "18", "type": "Feature", "properties": {"endpoint_cluster": 15, "lat": 52.2699758974359, "lon": 20.952070256410256, "events": 39, "origins": 18, "destinations": 21, "terminal_id": "T15", "area_km2": 1.7398643363673816}, "geometry": {"type": "Polygon", "coordinates": [[[20.954747875948364, 52.26373012762101], [20.926884837924156, 52.28111585217328], [20.96021550393133, 52.27465216445538], [20.96164461904978, 52.26876556047741], [20.95888261388187, 52.26509156571525], [20.954747875948364, 52.26373012762101]]]}}, {"id": "20", "type": "Feature", "properties": {"endpoint_cluster": 14, "lat": 52.28486810810811, "lon": 21.023166216216218, "events": 37, "origins": 17, "destinations": 20, "terminal_id": "T14", "area_km2": 5.713652241690164}, "geometry": {"type": "Polygon", "coordinates": [[[21.007342606031354, 52.2920316727708], [21.016242397141237, 52.29448791118386], [21.064075393573145, 52.27910671638652], [21.036750483629206, 52.263266915117384], [21.007342606031354, 52.2920316727708]]]}}, {"id": "21", "type": "Feature", "properties": {"endpoint_cluster": 19, "lat": 52.249558611111105, "lon": 20.938098055555557, "events": 36, "origins": 16, "destinations": 20, "terminal_id": "T19", "area_km2": 11.749506791968441}, "geometry": {"type": "Polygon", "coordinates": [[[20.917980628044866, 52.24391641135725], [20.91823716473146, 52.26108126122835], [20.940270841565606, 52.25768706213533], [20.970291064693107, 52.22466688581761], [20.938782284362254, 52.20632939658665], [20.917980628044866, 52.24391641135725]]]}}, {"id": "22", "type": "Feature", "properties": {"endpoint_cluster": 24, "lat": 52.24978411764705, "lon": 20.898035, "events": 34, "origins": 16, "destinations": 18, "terminal_id": "T24", "area_km2": 5.362750786913571}, "geometry": {"type": "Polygon", "coordinates": [[[20.91823716473146, 52.26108126122835], [20.917980628044866, 52.24391641135725], [20.88561362345125, 52.246109256279205], [20.878986477152658, 52.25451630112317], [20.9086504132165, 52.271789888153], [20.91823716473146, 52.26108126122835]]]}}, {"id": "23", "type": "Feature", "properties": {"endpoint_cluster": 17, "lat": 52.265083235294114, "lon": 20.969359999999998, "events": 34, "origins": 16, "destinations": 18, "terminal_id": "T17", "area_km2": 2.0711763891984467}, "geometry": {"type": "Polygon", "coordinates": [[[20.96164461904978, 52.26876556047741], [20.98400618365006, 52.267648911608724], [20.99127448799137, 52.2500557738603], [20.95888261388187, 52.26509156571525], [20.96164461904978, 52.26876556047741]]]}}, {"id": "29", "type": "Feature", "properties": {"endpoint_cluster": 1, "lat": 52.310472222222224, "lon": 21.06077666666667, "events": 27, "origins": 10, "destinations": 17, "terminal_id": "T1", "area_km2": 16.758418940867156}, "geometry": {"type": "Polygon", "coordinates": [[[21.032682211375658, 52.31405817031685], [21.024420159444464, 52.33900173135377], [21.046593861277387, 52.35183838769223], [21.082472275710042, 52.328571409476915], [21.073201554004342, 52.28439302526471], [21.07285374032606, 52.28419159141677], [21.032682211375658, 52.31405817031685]]]}}, {"id": "30", "type": "Feature", "properties": {"endpoint_cluster": 31, "lat": 52.28135148148148, "lon": 20.957936666666665, "events": 27, "origins": 21, "destinations": 6, "terminal_id": "T31", "area_km2": 3.956836056891917}, "geometry": {"type": "Polygon", "coordinates": [[[20.925456124480494, 52.28156663176529], [20.949807554102833, 52.29572108035444], [20.974701265719577, 52.281546279884125], [20.96021550393133, 52.27465216445538], [20.926884837924156, 52.28111585217328], [20.925456124480494, 52.28156663176529]]]}}]}